start=new Date('2023-07-04T00:00:00.000Z').valueOf();
sats=[{"FILE":"3948848","RCS_SIZE":"LARGE","TLE_LINE1":"1 54868U 22177BA  23184.69989689  .00000764  00000-0  71624-4 0  9993","REV_AT_EPOCH":"2858","REF_FRAME":"TEME","GP_ID":"234698820","ECCENTRICITY":"0.00014400","SITE":"AFETR","PERIOD":"95.838","TIME_SYSTEM":"UTC","ARG_OF_PERICENTER":"273.2963","ELEMENT_SET_NO":"999","SEMIMAJOR_AXIS":"6937.225","MEAN_MOTION":"15.02533379","MEAN_MOTION_DDOT":"0.0000000000000","MEAN_ANOMALY":"86.7715","EPOCH":"2023-07-03T16:47:51.091296","MEAN_MOTION_DOT":"0.00000764","CENTER_NAME":"EARTH","PERIAPSIS":"558.091","LAUNCH_DATE":"2022-12-28","OBJECT_TYPE":"PAYLOAD","COUNTRY_CODE":"US","EPHEMERIS_TYPE":"0","TLE_LINE2":"2 54868  43.0042  44.9435 0001440 273.2963  86.7715 15.02533379 28581","OBJECT_ID":"2022-177BA","CLASSIFICATION_TYPE":"U","RA_OF_ASC_NODE":"44.9435","APOAPSIS":"560.089","BSTAR":"0.00007162400000","OBJECT_NAME":"STARLINK-5379","DECAY_DATE":null,"MEAN_ELEMENT_THEORY":"SGP4","NORAD_CAT_ID":"54868","INCLINATION":"43.0042"},{"SITE":"AFETR","PERIOD":"95.839","ARG_OF_PERICENTER":"272.5328","TIME_SYSTEM":"UTC","ECCENTRICITY":"0.00014400","GP_ID":"234692914","REF_FRAME":"TEME","RCS_SIZE":"LARGE","TLE_LINE1":"1 54869U 22177BB  23184.11047562  .00004518  00000-0  34943-3 0  9999","REV_AT_EPOCH":"2849","FILE":"3948483","COUNTRY_CODE":"US","OBJECT_TYPE":"PAYLOAD","CENTER_NAME":"EARTH","MEAN_MOTION_DOT":"0.00004518","PERIAPSIS":"558.133","LAUNCH_DATE":"2022-12-28","EPOCH":"2023-07-03T02:39:05.093568","MEAN_ANOMALY":"87.5350","MEAN_MOTION_DDOT":"0.0000000000000","MEAN_MOTION":"15.02519673","ELEMENT_SET_NO":"999","SEMIMAJOR_AXIS":"6937.267","BSTAR":"0.00034943000000","APOAPSIS":"560.131","RA_OF_ASC_NODE":"48.2627","OBJECT_ID":"2022-177BB","CLASSIFICATION_TYPE":"U","EPHEMERIS_TYPE":"0","TLE_LINE2":"2 54869  43.0054  48.2627 0001440 272.5328  87.5350 15.02519673 28497","INCLINATION":"43.0054","NORAD_CAT_ID":"54869","MEAN_ELEMENT_THEORY":"SGP4","DECAY_DATE":null,"OBJECT_NAME":"STARLINK-5402"},{"DECAY_DATE":null,"OBJECT_NAME":"STARLINK-5401","INCLINATION":"43.0051","MEAN_ELEMENT_THEORY":"SGP4","NORAD_CAT_ID":"54870","OBJECT_ID":"2022-177BC","CLASSIFICATION_TYPE":"U","EPHEMERIS_TYPE":"0","TLE_LINE2":"2 54870  43.0051  44.9614 0001499 270.5956  89.4715 15.02534914 28596","BSTAR":"-0.00000507210000","APOAPSIS":"560.125","RA_OF_ASC_NODE":"44.9614","MEAN_ANOMALY":"89.4715","MEAN_MOTION_DDOT":"0.0000000000000","MEAN_MOTION":"15.02534914","ELEMENT_SET_NO":"999","SEMIMAJOR_AXIS":"6937.220","COUNTRY_CODE":"US","OBJECT_TYPE":"PAYLOAD","CENTER_NAME":"EARTH","MEAN_MOTION_DOT":"-0.00000272","LAUNCH_DATE":"2022-12-28","PERIAPSIS":"558.045","EPOCH":"2023-07-03T16:51:02.786976","RCS_SIZE":"LARGE","TLE_LINE1":"1 54870U 22177BC  23184.70211559 -.00000272  00000-0 -50721-5 0  9994","REV_AT_EPOCH":"2859","FILE":"3948818","SITE":"AFETR","ARG_OF_PERICENTER":"270.5956","PERIOD":"95.838","TIME_SYSTEM":"UTC","ECCENTRICITY":"0.00014990","GP_ID":"234698471","REF_FRAME":"TEME"},{"REV_AT_EPOCH":"2843","TLE_LINE1":"1 54871U 22177BD  23183.64735014 -.00000079  00000-0  91925-5 0  9999","RCS_SIZE":"LARGE","FILE":"3947894","SITE":"AFETR","TIME_SYSTEM":"UTC","PERIOD":"95.838","ARG_OF_PERICENTER":"267.3228","ECCENTRICITY":"0.00013570","GP_ID":"234678295","REF_FRAME":"TEME","MEAN_ANOMALY":"92.7459","MEAN_MOTION_DDOT":"0.0000000000000","MEAN_MOTION":"15.02531424","ELEMENT_SET_NO":"999","SEMIMAJOR_AXIS":"6937.231","COUNTRY_CODE":"US","OBJECT_TYPE":"PAYLOAD","MEAN_MOTION_DOT":"-0.00000079","CENTER_NAME":"EARTH","PERIAPSIS":"558.154","LAUNCH_DATE":"2022-12-28","EPOCH":"2023-07-02T15:32:11.052096","CLASSIFICATION_TYPE":"U","OBJECT_ID":"2022-177BD","EPHEMERIS_TYPE":"0","TLE_LINE2":"2 54871  43.0051  50.8088 0001357 267.3228  92.7459 15.02531424 28435","BSTAR":"0.00000919250000","APOAPSIS":"560.037","RA_OF_ASC_NODE":"50.8088","DECAY_DATE":null,"OBJECT_NAME":"STARLINK-5397","INCLINATION":"43.0051","MEAN_ELEMENT_THEORY":"SGP4","NORAD_CAT_ID":"54871"},{"COUNTRY_CODE":"US","OBJECT_TYPE":"PAYLOAD","LAUNCH_DATE":"2022-12-28","PERIAPSIS":"557.979","CENTER_NAME":"EARTH","MEAN_MOTION_DOT":"0.00000681","EPOCH":"2023-07-03T00:42:34.922304","MEAN_ANOMALY":"90.0730","MEAN_MOTION_DDOT":"0.0000000000000","MEAN_MOTION":"15.02535987","ELEMENT_SET_NO":"999","SEMIMAJOR_AXIS":"6937.217","PERIOD":"95.838","ARG_OF_PERICENTER":"269.9930","TIME_SYSTEM":"UTC","SITE":"AFETR","ECCENTRICITY":"0.00015900","GP_ID":"234685870","REF_FRAME":"TEME","TLE_LINE1":"1 54872U 22177BE  23184.02957086  .00000681  00000-0  65516-4 0  9992","RCS_SIZE":"LARGE","REV_AT_EPOCH":"2848","FILE":"3948181","INCLINATION":"43.0048","NORAD_CAT_ID":"54872","MEAN_ELEMENT_THEORY":"SGP4","DECAY_DATE":null,"OBJECT_NAME":"STARLINK-5390","BSTAR":"0.00006551600000","APOAPSIS":"560.185","RA_OF_ASC_NODE":"48.5395","CLASSIFICATION_TYPE":"U","OBJECT_ID":"2022-177BE","TLE_LINE2":"2 54872  43.0048  48.5395 0001590 269.9930  90.0730 15.02535987 28480","EPHEMERIS_TYPE":"0"},{"COUNTRY_CODE":"US","OBJECT_TYPE":"PAYLOAD","PERIAPSIS":"558.186","LAUNCH_DATE":"2022-12-28","CENTER_NAME":"EARTH","MEAN_MOTION_DOT":"0.00000173","EPOCH":"2023-07-03T16:43:03.014688","MEAN_ANOMALY":"95.2059","MEAN_MOTION_DDOT":"0.0000000000000","MEAN_MOTION":"15.02536988","SEMIMAJOR_AXIS":"6937.213","ELEMENT_SET_NO":"999","TIME_SYSTEM":"UTC","PERIOD":"95.838","ARG_OF_PERICENTER":"264.8636","SITE":"AFETR","ECCENTRICITY":"0.00012860","GP_ID":"234700453","REF_FRAME":"TEME","RCS_SIZE":"LARGE","TLE_LINE1":"1 54873U 22177BF  23184.69656267  .00000173  00000-0  27917-4 0  9992","REV_AT_EPOCH":"2871","FILE":"3948878","INCLINATION":"43.0050","NORAD_CAT_ID":"54873","MEAN_ELEMENT_THEORY":"SGP4","DECAY_DATE":null,"OBJECT_NAME":"STARLINK-5091","BSTAR":"0.00002791700000","APOAPSIS":"559.971","RA_OF_ASC_NODE":"44.9194","CLASSIFICATION_TYPE":"U","OBJECT_ID":"2022-177BF","TLE_LINE2":"2 54873  43.0050  44.9194 0001286 264.8636  95.2059 15.02536988 28719","EPHEMERIS_TYPE":"0"},{"NORAD_CAT_ID":"55269","MEAN_ELEMENT_THEORY":"SGP4","INCLINATION":"70.0010","DECAY_DATE":null,"OBJECT_NAME":"STARLINK-5277","BSTAR":"0.00017339000000","RA_OF_ASC_NODE":"356.7414","APOAPSIS":"574.215","EPHEMERIS_TYPE":"0","TLE_LINE2":"2 55269  70.0010 356.7414 0003067 268.3471  91.7337 14.98321825 25600","OBJECT_ID":"2023-010A","CLASSIFICATION_TYPE":"U","OBJECT_TYPE":"PAYLOAD","COUNTRY_CODE":"US","EPOCH":"2023-07-03T04:25:35.459616","CENTER_NAME":"EARTH","MEAN_MOTION_DOT":"0.00001976","LAUNCH_DATE":"2023-01-19","PERIAPSIS":"569.952","MEAN_MOTION_DDOT":"0.0000000000000","MEAN_ANOMALY":"91.7337","SEMIMAJOR_AXIS":"6950.218","ELEMENT_SET_NO":"999","MEAN_MOTION":"14.98321825","ECCENTRICITY":"0.00030670","SITE":"AFWTR","PERIOD":"96.108","TIME_SYSTEM":"UTC","ARG_OF_PERICENTER":"268.3471","REF_FRAME":"TEME","GP_ID":"234694525","RCS_SIZE":"LARGE","TLE_LINE1":"1 55269U 23010A   23184.18443819  .00001976  00000-0  17339-3 0  9998","REV_AT_EPOCH":"2560","FILE":"3948544"},{"RA_OF_ASC_NODE":"357.7961","APOAPSIS":"574.220","BSTAR":"-0.00001451200000","EPHEMERIS_TYPE":"0","TLE_LINE2":"2 55270  70.0006 357.7961 0003121 269.8844  90.1958 14.98332313 25545","OBJECT_ID":"2023-010B","CLASSIFICATION_TYPE":"U","NORAD_CAT_ID":"55270","MEAN_ELEMENT_THEORY":"SGP4","INCLINATION":"70.0006","DECAY_DATE":null,"OBJECT_NAME":"STARLINK-5301","REF_FRAME":"TEME","GP_ID":"234686889","ECCENTRICITY":"0.00031210","SITE":"AFWTR","ARG_OF_PERICENTER":"269.8844","PERIOD":"96.107","TIME_SYSTEM":"UTC","FILE":"3948233","TLE_LINE1":"1 55270U 23010B   23183.79639733 -.00000266  00000-0 -14512-4 0  9992","REV_AT_EPOCH":"2554","RCS_SIZE":"LARGE","EPOCH":"2023-07-02T19:06:48.729312","CENTER_NAME":"EARTH","MEAN_MOTION_DOT":"-0.00000266","PERIAPSIS":"569.882","LAUNCH_DATE":"2023-01-19","OBJECT_TYPE":"PAYLOAD","COUNTRY_CODE":"US","ELEMENT_SET_NO":"999","SEMIMAJOR_AXIS":"6950.186","MEAN_MOTION":"14.98332313","MEAN_MOTION_DDOT":"0.0000000000000","MEAN_ANOMALY":"90.1958"},{"FILE":"3948879","TLE_LINE1":"1 55271U 23010C   23184.72268939  .00000236  00000-0  27558-4 0  9992","REV_AT_EPOCH":"2568","RCS_SIZE":"LARGE","GP_ID":"234700473","REF_FRAME":"TEME","SITE":"AFWTR","PERIOD":"96.107","TIME_SYSTEM":"UTC","ARG_OF_PERICENTER":"268.9954","ECCENTRICITY":"0.00031630","MEAN_MOTION":"14.98329144","ELEMENT_SET_NO":"999","SEMIMAJOR_AXIS":"6950.196","MEAN_ANOMALY":"91.0842","MEAN_MOTION_DDOT":"0.0000000000000","CENTER_NAME":"EARTH","MEAN_MOTION_DOT":"0.00000236","PERIAPSIS":"569.862","LAUNCH_DATE":"2023-01-19","EPOCH":"2023-07-03T17:20:40.363296","COUNTRY_CODE":"US","OBJECT_TYPE":"PAYLOAD","OBJECT_ID":"2023-010C","CLASSIFICATION_TYPE":"U","EPHEMERIS_TYPE":"0","TLE_LINE2":"2 55271  70.0004 355.4092 0003163 268.9954  91.0842 14.98329144 25687","APOAPSIS":"574.259","RA_OF_ASC_NODE":"355.4092","BSTAR":"0.00002755800000","DECAY_DATE":null,"OBJECT_NAME":"STARLINK-5306","INCLINATION":"70.0004","NORAD_CAT_ID":"55271","MEAN_ELEMENT_THEORY":"SGP4"},{"APOAPSIS":"574.282","RA_OF_ASC_NODE":"355.9595","BSTAR":"-0.00000001418800","CLASSIFICATION_TYPE":"U","OBJECT_ID":"2023-010D","TLE_LINE2":"2 55272  70.0009 355.9595 0003187 270.3315  89.7479 14.98327194 25650","EPHEMERIS_TYPE":"0","INCLINATION":"70.0009","NORAD_CAT_ID":"55272","MEAN_ELEMENT_THEORY":"SGP4","OBJECT_NAME":"STARLINK-5310","DECAY_DATE":null,"GP_ID":"234694317","REF_FRAME":"TEME","ARG_OF_PERICENTER":"270.3315","PERIOD":"96.107","TIME_SYSTEM":"UTC","SITE":"AFWTR","ECCENTRICITY":"0.00031870","FILE":"3948543","RCS_SIZE":"LARGE","TLE_LINE1":"1 55272U 23010D   23184.53493395 -.00000093  00000-0 -14188-7 0  9999","REV_AT_EPOCH":"2565","LAUNCH_DATE":"2023-01-19","PERIAPSIS":"569.852","CENTER_NAME":"EARTH","MEAN_MOTION_DOT":"-0.00000093","EPOCH":"2023-07-03T12:50:18.293280","COUNTRY_CODE":"US","OBJECT_TYPE":"PAYLOAD","MEAN_MOTION":"14.98327194","SEMIMAJOR_AXIS":"6950.202","ELEMENT_SET_NO":"999","MEAN_ANOMALY":"89.7479","MEAN_MOTION_DDOT":"0.0000000000000"}];
